NORAD_CAT_ID,OBJECT_NAME,OBJECT_TYPE,EPOCH,MEAN_MOTION,ECCENTRICITY,INCLINATION,RA_OF_ASC_NODE,ARG_OF_PERICENTER,MEAN_ANOMALY,BSTAR,MEAN_MOTION_DOT,MEAN_MOTION_DDOT,TLE_LINE0,TLE_LINE1,TLE_LINE2,SEMIMAJOR_AXIS,PERIOD,APOGEE,PERIGEE,DECAYED
52500.0,STARLINK-3866,PAYLOAD,2023-03-24 14:49:38,15.08910075,0.0001316,53.2148,212.2446,82.6974,277.4168,0.001729,0.00027389,0.0,0 STARLINK-3866,1 52500U 22049BB  23083.61780449  .00027389  00000-0  17290-2 0  9994,2 52500  53.2148 212.2446 0001316  82.6974 277.4168 15.08910075 49481,6917.666,95.433,540.442,538.621,0.0
52500.0,STARLINK-3866,PAYLOAD,2023-03-25 01:57:20,15.08871748,0.0001615,53.2158,210.1602,68.2065,291.9098,0.00014435,2.012e-05,0.0,0 STARLINK-3866,1 52500U 22049BB  23084.08148225  .00002012  00000-0  14435-3 0  9991,2 52500  53.2158 210.1602 0001615  68.2065 291.9098 15.08871748 49550,6917.783,95.436,540.766,538.531,0.0
52500.0,STARLINK-3866,PAYLOAD,2023-03-25 11:29:40,15.08787714,0.0001574,53.2162,208.3733,94.8124,265.3048,-0.0018824,-0.00030079,0.0,0 STARLINK-3866,1 52500U 22049BB  23084.47894495 -.00030079  00000-0 -18824-2 0  9992,2 52500  53.2162 208.3733 0001574  94.8124 265.3048 15.08787714 49610,6918.04,95.441,540.994,538.816,0.0
52500.0,STARLINK-3866,PAYLOAD,2023-03-25 14:40:26,15.08822185,0.0001389,53.216,207.7787,102.127,257.9878,-0.00056862,-9.322e-05,0.0,0 STARLINK-3866,1 52500U 22049BB  23084.61142110 -.00009322  00000-0 -56862-3 0  9990,2 52500  53.2160 207.7787 0001389 102.1270 257.9878 15.08822185 49631,6917.935,95.439,540.761,538.839,0.0
52500.0,STARLINK-3866,PAYLOAD,2023-03-26 12:55:53,15.08804516,0.000161,53.2151,203.6204,70.6081,289.5085,0.00062784,9.709e-05,0.0,0 STARLINK-3866,1 52500U 22049BB  23085.53881522  .00009709  00000-0  62784-3 0  9996,2 52500  53.2151 203.6204 0001610  70.6081 289.5085 15.08804516 49770,6917.989,95.44,540.968,538.74,0.0
52500.0,STARLINK-3866,PAYLOAD,2023-03-26 14:31:16,15.08807248,0.0001617,53.2149,203.3227,73.0576,287.0593,0.00074404,0.00011563,0.0,0 STARLINK-3866,1 52500U 22049BB  23085.60505630  .00011563  00000-0  74404-3 0  9990,2 52500  53.2149 203.3227 0001617  73.0576 287.0593 15.08807248 49628,6917.981,95.44,540.964,538.727,0.0
52500.0,STARLINK-3866,PAYLOAD,2023-03-27 12:46:40,15.08860853,0.0001546,53.2161,199.1559,83.2727,276.8441,0.0011808,0.00018565,0.0,0 STARLINK-3866,1 52500U 22049BB  23086.53240941  .00018565  00000-0  11808-2 0  9991,2 52500  53.2161 199.1559 0001546  83.2727 276.8441 15.08860853 49926,6917.817,95.436,540.751,538.612,0.0
52500.0,STARLINK-3866,PAYLOAD,2023-03-27 14:22:03,15.08873549,0.0001553,53.2163,198.858,85.0429,275.074,0.0015182,0.00023979,0.0,0 STARLINK-3866,1 52500U 22049BB  23086.59864677  .00023979  00000-0  15182-2 0  9999,2 52500  53.2163 198.8580 0001553  85.0429 275.0740 15.08873549 49777,6917.778,95.435,540.717,538.569,0.0
52500.0,STARLINK-3866,PAYLOAD,2023-03-27 17:32:49,15.0888401,0.0001561,53.2163,198.2632,82.1613,277.9556,0.0016342,0.00025847,0.0,0 STARLINK-3866,1 52500U 22049BB  23086.73112278  .00025847  00000-0  16342-2 0  9993,2 52500  53.2163 198.2632 0001561  82.1613 277.9556 15.08884010 49952,6917.746,95.435,540.691,538.531,0.0
52500.0,STARLINK-3866,PAYLOAD,2023-03-27 23:54:21,15.08861464,9.31e-05,53.2154,197.0753,93.7239,266.386,-3.7446e-05,-8.84e-06,0.0,0 STARLINK-3866,1 52500U 22049BB  23086.99608126 -.00000884  00000-0 -37446-4 0  9999,2 52500  53.2154 197.0753 0000931  93.7239 266.3860 15.08861464 49997,6917.815,95.436,540.324,539.036,0.0
52500.0,STARLINK-3866,PAYLOAD,2023-03-28 12:37:26,15.08851848,0.000164,53.2157,194.6987,105.1092,255.0082,0.0011021,0.00017301,0.0,0 STARLINK-3866,1 52500U 22049BB  23087.52600234  .00017301  00000-0  11021-2 0  9990,2 52500  53.2157 194.6987 0001640 105.1092 255.0082 15.08851848 50072,6917.844,95.437,540.844,538.575,0.0
52500.0,STARLINK-3866,PAYLOAD,2023-03-28 17:23:35,15.08860495,0.000182,53.2158,193.8059,108.5875,251.5315,0.0014249,0.00022475,0.0,0 STARLINK-3866,1 52500U 22049BB  23087.72471963  .00022475  00000-0  14249-2 0  9990,2 52500  53.2158 193.8059 0001820 108.5875 251.5315 15.08860495 49942,6917.818,95.436,540.942,538.424,0.0
52500.0,STARLINK-3866,PAYLOAD,2023-03-29 12:28:12,15.08857886,0.0003536,53.2168,190.2309,149.999,210.1205,0.0010043,0.0001574,0.0,0 STARLINK-3866,1 52500U 22049BB  23088.51959267  .00015740  00000-0  10043-2 0  9991,2 52500  53.2168 190.2309 0003536 149.9990 210.1205 15.08857886 50227,6917.826,95.436,542.137,537.245,0.0
52500.0,STARLINK-3866,PAYLOAD,2023-03-29 14:03:36,15.08863392,0.0001509,53.2159,189.938,85.1795,274.9369,0.00083534,0.0001304,0.0,0 STARLINK-3866,1 52500U 22049BB  23088.58583719  .00013040  00000-0  83534-3 0  9990,2 52500  53.2159 189.9380 0001509  85.1795 274.9369 15.08863392 50074,6917.809,95.436,540.718,538.63,0.0
52500.0,STARLINK-3866,PAYLOAD,2023-03-30 12:19:00,15.08846145,0.0001497,53.2157,185.7682,133.5663,226.5453,0.00099754,0.00015626,0.0,0 STARLINK-3866,1 52500U 22049BB  23089.51319744  .00015626  00000-0  99754-3 0  9992,2 52500  53.2157 185.7682 0001497 133.5663 226.5453 15.08846145 50376,6917.862,95.437,540.762,538.691,0.0
52500.0,STARLINK-3866,PAYLOAD,2023-03-30 18:40:32,15.08855256,0.0001189,53.2159,184.5824,113.9599,246.1517,0.0010066,0.00015775,0.0,0 STARLINK-3866,1 52500U 22049BB  23089.77815664  .00015775  00000-0  10066-2 0  9995,2 52500  53.2159 184.5824 0001189 113.9599 246.1517 15.08855256 50250,6917.834,95.437,540.521,538.876,0.0
52500.0,STARLINK-3866,PAYLOAD,2023-03-31 05:48:14,15.08828582,5.92e-05,53.2162,182.5052,122.4532,237.6518,0.00010596,1.399e-05,0.0,0 STARLINK-3866,1 52500U 22049BB  23090.24183977  .00001399  00000-0  10596-3 0  9990,2 52500  53.2162 182.5052 0000592 122.4532 237.6518 15.08828582 50487,6917.915,95.438,540.19,539.371,0.0
52500.0,STARLINK-3866,PAYLOAD,2023-03-31 15:20:33,15.08870634,0.0001176,53.2146,180.7214,100.5403,259.5722,0.0021253,0.00033727,0.0,0 STARLINK-3866,1 52500U 22049BB  23090.63927623  .00033727  00000-0  21253-2 0  9998,2 52500  53.2146 180.7214 0001176 100.5403 259.5722 15.08870634 50544,6917.787,95.436,540.465,538.838,0.0
52500.0,STARLINK-3866,PAYLOAD,2023-03-31 23:17:29,15.08833093,0.000185,53.2162,179.2369,68.552,291.567,0.00023772,3.497e-05,0.0,0 STARLINK-3866,1 52500U 22049BB  23090.97048480  .00003497  00000-0  23772-3 0  9990,2 52500  53.2162 179.2369 0001850  68.5520 291.5670 15.08833093 50599,6917.902,95.438,541.046,538.487,0.0
52500.0,STARLINK-3866,PAYLOAD,2023-04-01 12:00:35,15.08827718,9.66e-05,53.215,176.8552,88.0348,272.0755,0.00012037,1.628e-05,0.0,0 STARLINK-3866,1 52500U 22049BB  23091.50040760  .00001628  00000-0  12037-3 0  9999,2 52500  53.2150 176.8552 0000966  88.0348 272.0755 15.08827718 50679,6917.918,95.438,540.451,539.115,0.0
52500.0,STARLINK-3866,PAYLOAD,2023-04-01 23:08:17,15.08842256,0.0001109,53.2149,174.7752,71.2695,288.8418,0.0012144,0.00019093,0.0,0 STARLINK-3866,1 52500U 22049BB  23091.96409154  .00019093  00000-0  12144-2 0  9998,2 52500  53.2149 174.7752 0001109  71.2695 288.8418 15.08842256 50748,6917.873,95.437,540.506,538.971,0.0
52500.0,STARLINK-3866,PAYLOAD,2023-04-02 10:15:59,15.08853047,0.0001211,53.2152,172.6942,69.3277,290.7845,0.0011905,0.00018716,0.0,0 STARLINK-3866,1 52500U 22049BB  23092.42777121  .00018716  00000-0  11905-2 0  9997,2 52500  53.2152 172.6942 0001211  69.3277 290.7845 15.08853047 50654,6917.841,95.437,540.543,538.868,0.0
52500.0,STARLINK-3866,PAYLOAD,2023-04-02 15:02:08,15.08866547,0.0001179,53.2157,171.7988,85.2085,274.9041,0.0013355,0.00021046,0.0,0 STARLINK-3866,1 52500U 22049BB  23092.62648641  .00021046  00000-0  13355-2 0  9994,2 52500  53.2157 171.7988 0001179  85.2085 274.9041 15.08866547 50680,6917.799,95.436,540.48,538.849,0.0
52500.0,STARLINK-3866,PAYLOAD,2023-04-03 11:42:09,15.08840782,0.0001091,53.2164,167.9336,103.0372,257.0742,0.00026564,3.942e-05,0.0,0 STARLINK-3866,1 52500U 22049BB  23093.48761063  .00003942  00000-0  26564-3 0  9995,2 52500  53.2164 167.9336 0001091 103.0372 257.0742 15.08840782 50978,6917.878,95.438,540.498,538.988,0.0
52500.0,STARLINK-3866,PAYLOAD,2023-04-03 21:14:28,15.0884156,0.0001092,53.2165,166.1499,90.8556,269.2561,0.0005859,9.049e-05,0.0,0 STARLINK-3866,1 52500U 22049BB  23093.88505288  .00009049  00000-0  58590-3 0  9992,2 52500  53.2165 166.1499 0001092  90.8556 269.2561 15.08841560 50876,6917.876,95.437,540.496,538.985,0.0
52500.0,STARLINK-3866,PAYLOAD,2023-04-04 09:57:33,15.08855813,0.0001087,53.2161,163.7719,92.0163,268.0954,0.00077872,0.00012132,0.0,0 STARLINK-3866,1 52500U 22049BB  23094.41496933  .00012132  00000-0  77872-3 0  9999,2 52500  53.2161 163.7719 0001087  92.0163 268.0954 15.08855813 50950,6917.832,95.437,540.449,538.945,0.0
52500.0,STARLINK-3866,PAYLOAD,2023-04-04 16:19:05,15.08868353,0.0001146,53.2162,162.5818,97.9601,262.1521,0.00092631,0.00014496,0.0,0 STARLINK-3866,1 52500U 22049BB  23094.67992342  .00014496  00000-0  92631-3 0  9997,2 52500  53.2162 162.5818 0001146  97.9601 262.1521 15.08868353 51156,6917.794,95.436,540.452,538.866,0.0
52500.0,STARLINK-3866,PAYLOAD,2023-04-05 03:26:47,15.08841151,0.0001689,53.2159,160.5009,80.0352,280.0831,-5.2889e-05,-1.13e-05,0.0,0 STARLINK-3866,1 52500U 22049BB  23095.14360929 -.00001130  00000-0 -52889-4 0  9995,2 52500  53.2159 160.5009 0001689  80.0352 280.0831 15.08841151 51228,6917.877,95.437,540.91,538.573,0.0
52500.0,STARLINK-3866,PAYLOAD,2023-04-05 11:23:43,15.08837397,0.0001303,53.2161,159.0137,90.0492,270.0649,8.0482e-05,9.93e-06,0.0,0 STARLINK-3866,1 52500U 22049BB  23095.47481018  .00000993  00000-0  80482-4 0  9998,2 52500  53.2161 159.0137 0001303  90.0492 270.0649 15.08837397 51116,6917.888,95.438,540.655,538.852,0.0
52500.0,STARLINK-3866,PAYLOAD,2023-04-05 20:56:02,15.08836029,0.000138,53.216,157.23,86.2469,273.8681,0.00047456,7.272e-05,0.0,0 STARLINK-3866,1 52500U 22049BB  23095.87225368  .00007272  00000-0  47456-3 0  9996,2 52500  53.2160 157.2300 0001380  86.2469 273.8681 15.08836029 51177,6917.893,95.438,540.712,538.803,0.0
